IRIDIUM 63              
1 25286U 98021B   25198.20087816  .00000273  00000+0  86373-4 0  9992
2 25286  86.3951  69.5380 0002142  91.3186 268.8257 14.36562466428426
IRIDIUM 69              
1 25319U 98026A   25198.19086162  .00000331  00000+0  96970-4 0  9994
2 25319  86.3953  82.7434 0000794 353.5274   6.5916 14.40990264427383
IRIDIUM 71              
1 25320U 98026B   25198.12434766  .00000259  00000+0  74202-4 0  9999
2 25320  86.3947  77.4562 0002795  37.7822 322.3573 14.41176449427902
IRIDIUM 73              
1 25344U 98032C   25198.52792930  .00000366  00000+0  86117-4 0  9993
2 25344  86.4395  33.9245 0001616  96.7558 263.3832 14.51738677434967
IRIDIUM 82              
1 25467U 98051A   25198.31908408  .00019729  00000+0  54672-3 0  9999
2 25467  86.3651  94.9096 0083086 179.8024 180.3275 15.33321053428576
